[
  { "name": "阿尔巴尼亚", "code2": "AL", "code3": "ALB", "phoneCode": "8" },
  { "name": "阿尔及利亚", "code2": "DZ", "code3": "DZA", "phoneCode": "12" },
  { "name": "阿富汗", "code2": "AF", "code3": "AFG", "phoneCode": "4" },
  { "name": "阿根廷", "code2": "AR", "code3": "ARG", "phoneCode": "32" },
  { "name": "阿闻酋", "code2": "AE", "code3": "ARE", "phoneCode": "784" },
  { "name": "阿鲁巴", "code2": "AW", "code3": "ABW", "phoneCode": "533" },
  { "name": "阿曼", "code2": "OM", "code3": "OMN", "phoneCode": "512" },
  { "name": "阿塞拜疆", "code2": "AZ", "code3": "AZE", "phoneCode": "31" },
  { "name": "埃及", "code2": "EG", "code3": "EGY", "phoneCode": "818" },
  { "name": "埃塞俄比亚", "code2": "ET", "code3": "ETH", "phoneCode": "231" },
  { "name": "爱尔兰", "code2": "IE", "code3": "IRL", "phoneCode": "372" },
  { "name": "爱沙尼亚", "code2": "EE", "code3": "EST", "phoneCode": "233" },
  { "name": "安道尔", "code2": "AD", "code3": "AND", "phoneCode": "20" },
  { "name": "安哥拉", "code2": "AO", "code3": "AGO", "phoneCode": "24" },
  { "name": "安圭拉", "code2": "AI", "code3": "AIA", "phoneCode": "660" },
  { "name": "安提瓜和巴布达", "code2": "AG", "code3": "ATG", "phoneCode": "28" },
  { "name": "奥地利", "code2": "AT", "code3": "AUT", "phoneCode": "40" },
  { "name": "澳大利亚", "code2": "AU", "code3": "AUS", "phoneCode": "36" },
  { "name": "澳门", "code2": "MO", "code3": "MAC", "phoneCode": "446" },
  { "name": "巴巴多斯", "code2": "BB", "code3": "BRB", "phoneCode": "52" },
  { "name": "巴布亚新几内亚", "code2": "PG", "code3": "PNG", "phoneCode": "598" },
  { "name": "巴哈马", "code2": "BS", "code3": "BHS", "phoneCode": "44" },
  { "name": "巴基斯坦", "code2": "PK", "code3": "PAK", "phoneCode": "586" },
  { "name": "巴拉圭", "code2": "PY", "code3": "PRY", "phoneCode": "600" },
  { "name": "巴勒斯坦", "code2": "PS", "code3": "PST", "phoneCode": "374" },
  { "name": "巴林", "code2": "BH", "code3": "BHR", "phoneCode": "48" },
  { "name": "巴拿马", "code2": "PA", "code3": "PAN", "phoneCode": "591" },
  { "name": "巴西", "code2": "BR", "code3": "BRA", "phoneCode": "76" },
  { "name": "白俄罗斯", "code2": "BY", "code3": "BLR", "phoneCode": "112" },
  { "name": "百慕大", "code2": "BM", "code3": "BMU", "phoneCode": "60" },
  { "name": "保加利亚", "code2": "BG", "code3": "BGR", "phoneCode": "100" },
  { "name": "北马里亚纳", "code2": "MP", "code3": "MNP", "phoneCode": "580" },
  { "name": "贝劳", "code2": "PW", "code3": "PLW", "phoneCode": "585" },
  { "name": "贝宁", "code2": "BJ", "code3": "BEN", "phoneCode": "204" },
  { "name": "比利时", "code2": "BE", "code3": "BEL", "phoneCode": "56" },
  { "name": "冰岛", "code2": "IS", "code3": "ISL", "phoneCode": "352" },
  { "name": "波多黎各", "code2": "PR", "code3": "PRI", "phoneCode": "630" },
  { "name": "波兰", "code2": "PL", "code3": "POL", "phoneCode": "616" },
  { "name": "玻利维亚", "code2": "BO", "code3": "BOL", "phoneCode": "68" },
  { "name": "波斯尼亚和黑塞哥维那", "code2": "BA", "code3": "BIH", "phoneCode": "70" },
  { "name": "博茨瓦纳", "code2": "BW", "code3": "BWA", "phoneCode": "72" },
  { "name": "伯利兹", "code2": "BZ", "code3": "BLZ", "phoneCode": "84" },
  { "name": "不丹", "code2": "BT", "code3": "BTN", "phoneCode": "64" },
  { "name": "布基纳法索", "code2": "BF", "code3": "BFA", "phoneCode": "854" },
  { "name": "布隆迪", "code2": "BI", "code3": "BDI", "phoneCode": "108" },
  { "name": "布维岛", "code2": "BV", "code3": "BVT", "phoneCode": "74" },
  { "name": "朝鲜", "code2": "KP", "code3": "PRK", "phoneCode": "408" },
  { "name": "赤道几内亚", "code2": "GQ", "code3": "GNQ", "phoneCode": "226" },
  { "name": "丹麦", "code2": "DK", "code3": "DNK", "phoneCode": "208" },
  { "name": "德国", "code2": "DE", "code3": "DEU", "phoneCode": "276" },
  { "name": "东帝汶", "code2": "TP", "code3": "TMP", "phoneCode": "626" },
  { "name": "多哥", "code2": "TG", "code3": "TGO", "phoneCode": "768" },
  { "name": "多米尼加共和国", "code2": "DO", "code3": "DOM", "phoneCode": "214" },
  { "name": "多米尼克", "code2": "DM", "code3": "DMA", "phoneCode": "212" },
  { "name": "俄罗斯", "code2": "RU", "code3": "RUS", "phoneCode": "643" },
  { "name": "厄瓜多尔", "code2": "EC", "code3": "ECU", "phoneCode": "218" },
  { "name": "厄立特里亚", "code2": "ER", "code3": "ERI", "phoneCode": "232" },
  { "name": "法国", "code2": "FR", "code3": "FRA", "phoneCode": "250" },
  { "name": "法罗群岛", "code2": "FO", "code3": "FRO", "phoneCode": "234" },
  { "name": "法属波利尼西亚", "code2": "PF", "code3": "PYF", "phoneCode": "258" },
  { "name": "法属圭亚那", "code2": "GF", "code3": "GUF", "phoneCode": "254" },
  { "name": "法属南部领土", "code2": "TF", "code3": "ATF", "phoneCode": "260" },
  { "name": "梵蒂冈", "code2": "VA", "code3": "VAT", "phoneCode": "336" },
  { "name": "菲律宾", "code2": "PH", "code3": "PHL", "phoneCode": "608" },
  { "name": "斐济", "code2": "FJ", "code3": "FJI", "phoneCode": "242" },
  { "name": "芬兰", "code2": "FI", "code3": "FIN", "phoneCode": "246" },
  { "name": "佛得角", "code2": "CV", "code3": "CPV", "phoneCode": "132" },
  { "name": "冈比亚", "code2": "GM", "code3": "GMB", "phoneCode": "270" },
  { "name": "刚果", "code2": "CG", "code3": "COG", "phoneCode": "178" },
  { "name": "哥伦比亚", "code2": "Co", "code3": "COL", "phoneCode": "170" },
  { "name": "哥斯达黎加", "code2": "CR", "code3": "CR", "phoneCode": "188" },
  { "name": "格林纳达", "code2": "GD", "code3": "GRD", "phoneCode": "308" },
  { "name": "格陵兰", "code2": "GL", "code3": "GRL", "phoneCode": "304" },
  { "name": "格鲁吉亚", "code2": "GE", "code3": "GEO", "phoneCode": "268" },
  { "name": "古巴", "code2": "CU", "code3": "CUB", "phoneCode": "192" },
  { "name": "瓜德罗普", "code2": "GP", "code3": "GLP", "phoneCode": "312" },
  { "name": "关岛", "code2": "GU", "code3": "GUM", "phoneCode": "316" },
  { "name": "圭亚那", "code2": "GY", "code3": "GUY", "phoneCode": "328" },
  { "name": "哈萨克斯坦", "code2": "KZ", "code3": "KAZ", "phoneCode": "398" },
  { "name": "海地", "code2": "HT", "code3": "HTI", "phoneCode": "332" },
  { "name": "韩国", "code2": "KR", "code3": "KOR", "phoneCode": "410" },
  { "name": "荷兰", "code2": "NL", "code3": "NLD", "phoneCode": "528" },
  { "name": "荷属安的列斯", "code2": "AN", "code3": "ANT", "phoneCode": "530" },
  { "name": "赫德岛和麦克唐纳岛", "code2": "HM", "code3": "HMD", "phoneCode": "334" },
  { "name": "洪都拉斯", "code2": "HN", "code3": "HND", "phoneCode": "340" },
  { "name": "基里巴斯", "code2": "KI", "code3": "KIR", "phoneCode": "296" },
  { "name": "吉布提", "code2": "DJ", "code3": "DJI", "phoneCode": "262" },
  { "name": "吉尔吉斯斯坦", "code2": "KG", "code3": "KGZ", "phoneCode": "417" },
  { "name": "几内亚", "code2": "GN", "code3": "GIN", "phoneCode": "324" },
  { "name": "几内亚比绍", "code2": "GW", "code3": "GNB", "phoneCode": "624" },
  { "name": "加拿大", "code2": "CA", "code3": "CAN", "phoneCode": "124" },
  { "name": "加纳", "code2": "GH", "code3": "GHA", "phoneCode": "288" },
  { "name": "加蓬", "code2": "GA", "code3": "GAB", "phoneCode": "266" },
  { "name": "柬埔寨", "code2": "KH", "code3": "KHM", "phoneCode": "116" },
  { "name": "捷克", "code2": "CZ", "code3": "CZE", "phoneCode": "203" },
  { "name": "津巴布韦", "code2": "ZW", "code3": "ZWE", "phoneCode": "716" },
  { "name": "喀麦隆", "code2": "CM", "code3": "CMR", "phoneCode": "120" },
  { "name": "卡塔尔", "code2": "QA", "code3": "QAT", "phoneCode": "634" },
  { "name": "开曼群岛", "code2": "KY", "code3": "CYM", "phoneCode": "136" },
  { "name": "科特迪瓦", "code2": "CI", "code3": "CIV", "phoneCode": "384" },
  { "name": "科威特", "code2": "KW", "code3": "KWT", "phoneCode": "414" },
  { "name": "克罗地亚", "code2": "HR", "code3": "HRV", "phoneCode": "191" },
  { "name": "肯尼亚", "code2": "KE", "code3": "KEN", "phoneCode": "404" },
  { "name": "库克群岛", "code2": "CK", "code3": "COK", "phoneCode": "184" },
  { "name": "拉脱维亚", "code2": "LV", "code3": "LVA", "phoneCode": "428" },
  { "name": "莱索托", "code2": "LS", "code3": "LSO", "phoneCode": "426" },
  { "name": "老挝", "code2": "LA", "code3": "LAO", "phoneCode": "418" },
  { "name": "黎巴嫩", "code2": "LB", "code3": "LBN", "phoneCode": "422" },
  { "name": "利比里亚", "code2": "LR", "code3": "LBR", "phoneCode": "430" },
  { "name": "利比亚", "code2": "LY", "code3": "LBY", "phoneCode": "434" },
  { "name": "立陶宛", "code2": "LT", "code3": "LTU", "phoneCode": "440" },
  { "name": "列支敦士登", "code2": "LI", "code3": "LIE", "phoneCode": "438" },
  { "name": "留尼汪", "code2": "RE", "code3": "REU", "phoneCode": "638" },
  { "name": "卢森堡", "code2": "LU", "code3": "LUX", "phoneCode": "442" },
  { "name": "卢旺达", "code2": "RW", "code3": "RWA", "phoneCode": "646" },
  { "name": "罗马尼亚", "code2": "RO", "code3": "ROM", "phoneCode": "642" },
  { "name": "马达加斯加", "code2": "MG", "code3": "MDG", "phoneCode": "450" },
  { "name": "马耳他", "code2": "MT", "code3": "MLT", "phoneCode": "470" },
  { "name": "马尔代夫", "code2": "MV", "code3": "MDV", "phoneCode": "462" },
  { "name": "马拉维", "code2": "MW", "code3": "MWI", "phoneCode": "454" },
  { "name": "马来西亚", "code2": "MY", "code3": "MYS", "phoneCode": "458" },
  { "name": "马里", "code2": "ML", "code3": "MLI", "phoneCode": "466" },
  { "name": "马斯顿", "code2": "MK", "code3": "MKD", "phoneCode": "807" },
  { "name": "马绍尔群岛", "code2": "MH", "code3": "MHL", "phoneCode": "584" },
  { "name": "马提尼克", "code2": "MQ", "code3": "MTQ", "phoneCode": "474" },
  { "name": "马约特", "code2": "YT", "code3": "MYT", "phoneCode": "175" },
  { "name": "毛里求斯", "code2": "MU", "code3": "MUS", "phoneCode": "480" },
  { "name": "毛里塔尼亚", "code2": "MR", "code3": "MRT", "phoneCode": "478" },
  { "name": "美国", "code2": "US", "code3": "USA", "phoneCode": "840" },
  { "name": "美属萨摩亚", "code2": "AS", "code3": "ASM", "phoneCode": "16" },
  { "name": "蒙古", "code2": "MN", "code3": "MNG", "phoneCode": "496" },
  { "name": "蒙特塞拉特", "code2": "MS", "code3": "MSR", "phoneCode": "500" },
  { "name": "孟加拉国", "code2": "BD", "code3": "BGD", "phoneCode": "50" },
  { "name": "秘鲁", "code2": "PE", "code3": "PER", "phoneCode": "604" },
  { "name": "密克罗尼西亚", "code2": "FM", "code3": "FSM", "phoneCode": "583" },
  { "name": "缅甸", "code2": "MM", "code3": "MMR", "phoneCode": "104" },
  { "name": "摩尔多瓦", "code2": "MD", "code3": "MDA", "phoneCode": "498" },
  { "name": "摩洛哥", "code2": "MA", "code3": "MAR", "phoneCode": "504" },
  { "name": "摩纳哥", "code2": "MC", "code3": "MCO", "phoneCode": "492" },
  { "name": "莫桑比克", "code2": "MZ", "code3": "MOZ", "phoneCode": "508" },
  { "name": "墨西哥", "code2": "MX", "code3": "MEX", "phoneCode": "484" },
  { "name": "纳米比亚", "code2": "NA", "code3": "NAM", "phoneCode": "516" },
  { "name": "南非", "code2": "ZA", "code3": "ZAF", "phoneCode": "710" },
  { "name": "南极洲", "code2": "AQ", "code3": "ATA", "phoneCode": "10" },
  { "name": "南乔治亚岛和南桑德韦奇岛", "code2": "GS", "code3": "SGS", "phoneCode": "239" },
  { "name": "南斯拉夫", "code2": "YU", "code3": "YUG", "phoneCode": "891" },
  { "name": "瑙鲁", "code2": "NR", "code3": "NRU", "phoneCode": "520" },
  { "name": "尼泊尔", "code2": "NP", "code3": "NPL", "phoneCode": "524" },
  { "name": "尼加拉瓜", "code2": "NI", "code3": "NIC", "phoneCode": "558" },
  { "name": "尼日尔", "code2": "NE", "code3": "NER", "phoneCode": "562" },
  { "name": "尼日利亚", "code2": "NG", "code3": "NGA", "phoneCode": "566" },
  { "name": "纽埃", "code2": "NU", "code3": "NIU", "phoneCode": "570" },
  { "name": "挪威", "code2": "NO", "code3": "NOR", "phoneCode": "578" },
  { "name": "诺福克岛", "code2": "NF", "code3": "NFK", "phoneCode": "574" },
  { "name": "皮特凯恩群岛", "code2": "PN", "code3": "PCN", "phoneCode": "612" },
  { "name": "葡萄牙", "code2": "PT", "code3": "PRT", "phoneCode": "620" },
  { "name": "日本", "code2": "JP", "code3": "JPN", "phoneCode": "392" },
  { "name": "瑞典", "code2": "SE", "code3": "SWE", "phoneCode": "752" },
  { "name": "瑞士", "code2": "CH", "code3": "CHE", "phoneCode": "756" },
  { "name": "萨尔瓦多", "code2": "SV", "code3": "SLV", "phoneCode": "222" },
  { "name": "塞拉利昂", "code2": "SL", "code3": "SLE", "phoneCode": "694" },
  { "name": "塞内加尔", "code2": "SN", "code3": "SEN", "phoneCode": "686" },
  { "name": "塞浦路斯", "code2": "CY", "code3": "CYP", "phoneCode": "196" },
  { "name": "塞舌尔", "code2": "SC", "code3": "SYC", "phoneCode": "690" },
  { "name": "沙特阿拉伯", "code2": "SA", "code3": "SAU", "phoneCode": "682" },
  { "name": "圣诞岛", "code2": "CS", "code3": "CSR", "phoneCode": "162" },
  { "name": "圣多美和普林西比", "code2": "St", "code3": "STp", "phoneCode": "678" },
  { "name": "圣赫勒拿", "code2": "Sh", "code3": "SHN", "phoneCode": "654" },
  { "name": "圣基茨和尼维斯", "code2": "KN", "code3": "KNA", "phoneCode": "659" },
  { "name": "圣卢西亚", "code2": "LC", "code3": "LCA", "phoneCode": "662" },
  { "name": "圣马力诺", "code2": "SM", "code3": "SMR", "phoneCode": "674" },
  { "name": "圣皮埃尔和密克隆", "code2": "PM", "code3": "SPM", "phoneCode": "666" },
  { "name": "圣文森特和格林纳丁斯", "code2": "VC", "code3": "VCT", "phoneCode": "670" },
  { "name": "斯里兰卡", "code2": "LK", "code3": "LKA", "phoneCode": "144" },
  { "name": "斯洛伐克", "code2": "SK", "code3": "SVK", "phoneCode": "703" },
  { "name": "斯洛文尼亚", "code2": "SI", "code3": "SVN", "phoneCode": "705" },
  { "name": "斯瓦尔巴群岛", "code2": "SJ", "code3": "SJM", "phoneCode": "744" },
  { "name": "斯威士兰", "code2": "SZ", "code3": "SWZ", "phoneCode": "748" },
  { "name": "苏丹", "code2": "SD", "code3": "SDN", "phoneCode": "736" },
  { "name": "苏里南", "code2": "SR", "code3": "SUR", "phoneCode": "740" },
  { "name": "索马里", "code2": "SO", "code3": "SOM", "phoneCode": "706" },
  { "name": "所罗门群岛", "code2": "SB", "code3": "SLB", "phoneCode": "90" },
  { "name": "塔吉克斯坦", "code2": "TJ", "code3": "TJK", "phoneCode": "762" },
  { "name": "泰国", "code2": "TH", "code3": "THA", "phoneCode": "764" },
  { "name": "坦桑尼亚", "code2": "TZ", "code3": "TZA", "phoneCode": "834" },
  { "name": "汤加", "code2": "TO", "code3": "TON", "phoneCode": "776" },
  { "name": "特克斯科斯群岛", "code2": "TC", "code3": "TCA", "phoneCode": "796" },
  { "name": "特立尼达和多巴哥", "code2": "TT", "code3": "TTO", "phoneCode": "780" },
  { "name": "突尼斯", "code2": "TN", "code3": "TUN", "phoneCode": "788" },
  { "name": "图瓦卢", "code2": "TV", "code3": "TUV", "phoneCode": "798" },
  { "name": "土耳其", "code2": "TR", "code3": "TUR", "phoneCode": "792" },
  { "name": "土库曼斯坦", "code2": "TM", "code3": "TKM", "phoneCode": "795" },
  { "name": "托克劳", "code2": "TK", "code3": "TKL", "phoneCode": "772" },
  { "name": "瓦利斯和富图纳群岛", "code2": "WF", "code3": "WLF", "phoneCode": "876" },
  { "name": "瓦努阿图", "code2": "VU", "code3": "VUT", "phoneCode": "548" },
  { "name": "危地马拉", "code2": "GT", "code3": "GTM", "phoneCode": "320" },
  { "name": "委内瑞拉", "code2": "VE", "code3": "VEN", "phoneCode": "862" },
  { "name": "文莱", "code2": "BN", "code3": "BRN", "phoneCode": "96" },
  { "name": "乌干达", "code2": "UG", "code3": "UGA", "phoneCode": "800" },
  { "name": "乌克兰", "code2": "UA", "code3": "UKR", "phoneCode": "804" },
  { "name": "乌拉圭", "code2": "UY", "code3": "URY", "phoneCode": "858" },
  { "name": "乌兹别克斯坦", "code2": "UZ", "code3": "UZB", "phoneCode": "860" },
  { "name": "西班牙", "code2": "ES", "code3": "ESP", "phoneCode": "724" },
  { "name": "西撒哈拉", "code2": "EH", "code3": "ESH", "phoneCode": "732" },
  { "name": "西萨摩亚", "code2": "WS", "code3": "WSM", "phoneCode": "882" },
  { "name": "希腊", "code2": "GR", "code3": "GRC", "phoneCode": "300" },
  { "name": "香港", "code2": "HK", "code3": "HKG", "phoneCode": "344" },
  { "name": "新加坡", "code2": "SG", "code3": "SGP", "phoneCode": "702" },
  { "name": "新喀里多尼亚", "code2": "NC", "code3": "NCL", "phoneCode": "540" },
  { "name": "新西兰", "code2": "NZ", "code3": "NZL", "phoneCode": "554" },
  { "name": "匈牙利", "code2": "HU", "code3": "HUN", "phoneCode": "348" },
  { "name": "叙利亚", "code2": "SY", "code3": "SYR", "phoneCode": "760" },
  { "name": "牙买加", "code2": "JM", "code3": "JAM", "phoneCode": "388" },
  { "name": "亚美尼亚", "code2": "AM", "code3": "ARM", "phoneCode": "51" },
  { "name": "也门", "code2": "YE", "code3": "YEM", "phoneCode": "887" },
  { "name": "伊拉克", "code2": "IQ", "code3": "IRQ", "phoneCode": "368" },
  { "name": "伊朗", "code2": "IR", "code3": "IRN", "phoneCode": "364" },
  { "name": "以色列", "code2": "IL", "code3": "ISR", "phoneCode": "376" },
  { "name": "意大利", "code2": "IT", "code3": "ITA", "phoneCode": "380" },
  { "name": "印度", "code2": "IN", "code3": "IND", "phoneCode": "356" },
  { "name": "印度尼西亚", "code2": "ID", "code3": "IDN", "phoneCode": "360" },
  { "name": "英国", "code2": "GB", "code3": "GBR", "phoneCode": "826" },
  { "name": "英属维尔京群岛", "code2": "VG", "code3": "VGB", "phoneCode": "92" },
  { "name": "英属印度洋领土", "code2": "IO", "code3": "IOT", "phoneCode": "86" },
  { "name": "约旦", "code2": "JO", "code3": "JOR", "phoneCode": "400" },
  { "name": "越南", "code2": "VN", "code3": "VNM", "phoneCode": "704" },
  { "name": "赞比亚", "code2": "ZM", "code3": "ZMB", "phoneCode": "894" },
  { "name": "扎伊尔", "code2": "ZR", "code3": "ZAR", "phoneCode": "180" },
  { "name": "乍得", "code2": "TD", "code3": "TCD", "phoneCode": "148" },
  { "name": "直布罗陀", "code2": "GI", "code3": "GIB", "phoneCode": "292" },
  { "name": "智利", "code2": "CL", "code3": "CHL", "phoneCode": "152" },
  { "name": "中非", "code2": "CF", "code3": "CAF", "phoneCode": "140" },
  { "name": "中国", "code2": "CN", "code3": "CHN", "phoneCode": "156" },
  { "name": "中国台湾", "code2": "CT", "code3": "CTN", "phoneCode": "158" }
]
